{
  "norad_id": 63037,
  "name": "STARLINK-32810",
  "history": [
    {
      "epoch": "2026-03-28T11:51:28.494720Z",
      "apogee_km": 476.18467680471986,
      "perigee_km": 474.1618537468212,
      "latitude_deg": 1.6840543792280063e-05,
      "longitude_deg": 167.15506150556294,
      "height_km": 475.6830268930926,
      "semi_major_axis_km": 6853.310265275771,
      "eccentricity": 0.00014758,
      "inclination_deg": 53.1609,
      "raan_deg": 170.9375,
      "arg_perigee_deg": 67.4238,
      "mean_anomaly_deg": 292.6919,
      "mean_motion_rev_day": 15.30214001
    },
    {
      "epoch": "2026-03-29T22:20:38.914944Z",
      "apogee_km": 476.16685947276073,
      "perigee_km": 474.20817932511727,
      "latitude_deg": 2.1696132982533714e-06,
      "longitude_deg": 1.7693341999996186,
      "height_km": 476.00995977587627,
      "semi_major_axis_km": 6853.324519398939,
      "eccentricity": 0.0001429,
      "inclination_deg": 53.1603,
      "raan_deg": 164.2615,
      "arg_perigee_deg": 85.581,
      "mean_anomaly_deg": 274.5354,
      "mean_motion_rev_day": 15.30209227
    },
    {
      "epoch": "2026-03-29T22:20:38.915808Z",
      "apogee_km": 476.1665853397799,
      "perigee_km": 474.2084534580981,
      "latitude_deg": 5.8456741278177235e-06,
      "longitude_deg": 1.7693333289378002,
      "height_km": 476.0099808979155,
      "semi_major_axis_km": 6853.324519398939,
      "eccentricity": 0.00014286,
      "inclination_deg": 53.1603,
      "raan_deg": 164.2615,
      "arg_perigee_deg": 85.581,
      "mean_anomaly_deg": 274.5354,
      "mean_motion_rev_day": 15.30209227
    },
    {
      "epoch": "2026-03-30T14:01:11.077536Z",
      "apogee_km": 476.1019212921874,
      "perigee_km": 474.285514518715,
      "latitude_deg": 4.40412423618676e-05,
      "longitude_deg": 122.95978125951699,
      "height_km": 475.8376818335516,
      "semi_major_axis_km": 6853.330717905451,
      "eccentricity": 0.00013252,
      "inclination_deg": 53.1606,
      "raan_deg": 161.2297,
      "arg_perigee_deg": 73.7479,
      "mean_anomaly_deg": 286.3668,
      "mean_motion_rev_day": 15.30207151
    },
    {
      "epoch": "2026-03-30T21:51:26.905248Z",
      "apogee_km": 476.06122702938046,
      "perigee_km": 474.3176037227804,
      "latitude_deg": -2.6685299953233112e-05,
      "longitude_deg": 3.5521960137740045,
      "height_km": 476.1993593110768,
      "semi_major_axis_km": 6853.32641537608,
      "eccentricity": 0.00012721,
      "inclination_deg": 53.1607,
      "raan_deg": 159.71,
      "arg_perigee_deg": 97.3663,
      "mean_anomaly_deg": 262.7482,
      "mean_motion_rev_day": 15.30208592
    },
    {
      "epoch": "2026-03-31T13:31:58.884672Z",
      "apogee_km": 475.6276342822812,
      "perigee_km": 474.82990250683997,
      "latitude_deg": 2.9083688731068036e-05,
      "longitude_deg": 124.7447189017272,
      "height_km": 476.03700467325274,
      "semi_major_axis_km": 6853.36576839456,
      "eccentricity": 5.82e-05,
      "inclination_deg": 53.1601,
      "raan_deg": 156.6795,
      "arg_perigee_deg": 76.8451,
      "mean_anomaly_deg": 283.2615,
      "mean_motion_rev_day": 15.30195412
    },
    {
      "epoch": "2026-04-01T09:54:40.862016Z",
      "apogee_km": 476.02424437768514,
      "perigee_km": 474.38629557516015,
      "latitude_deg": -4.697355907871998e-06,
      "longitude_deg": 174.2879811015142,
      "height_km": 475.9184927096464,
      "semi_major_axis_km": 6853.342269976422,
      "eccentricity": 0.0001195,
      "inclination_deg": 53.1586,
      "raan_deg": 152.7346,
      "arg_perigee_deg": 76.9553,
      "mean_anomaly_deg": 283.1581,
      "mean_motion_rev_day": 15.30203282
    },
    {
      "epoch": "2026-04-02T20:23:51.180288Z",
      "apogee_km": 476.10830335367245,
      "perigee_km": 474.1578626880437,
      "latitude_deg": 2.422687395473632e-05,
      "longitude_deg": 8.902913281977568,
      "height_km": 476.00482276130566,
      "semi_major_axis_km": 6853.270083020858,
      "eccentricity": 0.0001423,
      "inclination_deg": 53.1575,
      "raan_deg": 146.0588,
      "arg_perigee_deg": 88.4803,
      "mean_anomaly_deg": 271.6361,
      "mean_motion_rev_day": 15.30227459
    }
  ]
}